ONEWEB-0172             
1 48071U 21025AF  26101.11402975  .00000018  00000+0  13948-4 0  9996
2 48071  87.8985 333.5764 0001811  76.4904 283.6427 13.13468790245701
ONEWEB-0174             
1 48072U 21025AG  26101.09541120  .00000418  00000+0  11108-2 0  9998
2 48072  87.8989 333.5811 0001550  80.5260 279.6045 13.13469399245022
ONEWEB-0175             
1 48073U 21025AH  26101.04969537 -.00000224  00000+0 -64922-3 0  9990
2 48073  87.8998 333.5686 0002043  79.1116 281.0243 13.13468360244679
ONEWEB-0177             
1 48074U 21025AJ  26101.06155041 -.00000286  00000+0 -81940-3 0  9997
2 48074  87.8997 333.5873 0001579  75.2782 284.8522 13.13470145244862
ONEWEB-0178             
1 48075U 21025AK  26101.08031586  .00000217  00000+0  55944-3 0  9994
2 48075  87.8979 333.6055 0001939  75.7202 284.4142 13.13468770244919
ONEWEB-0108             
1 48076U 21025AL  26101.11573008 -.00000052  00000+0 -17660-3 0  9991
2 48076  87.8998 333.5651 0001627  88.4865 271.6451 13.13468546244846
ONEWEB-0169             
1 48077U 21025AM  26101.07171304  .00000001  00000+0 -33278-4 0  9997
2 48077  87.8991 333.5874 0001637  88.2681 271.8636 13.13468970243490
GAOFEN-12 02            
1 48079U 21026A   26101.30555067  .00000350  00000+0  52990-4 0  9996
2 48079  97.9929  99.7644 0006308  91.2631 268.9303 14.80242755271866
STARLINK-2404           
1 48093U 21027B   26101.25002315  .00023398  00000+0  76367-3 0  9990
2 48093  53.1597   3.6919 0001201  65.5962 348.4385 15.31688047  5756
STARLINK-2412           
1 48094U 21027C   26101.05070538  .00002001  00000+0  79640-4 0  9997
2 48094  53.1628  14.9634 0001042  89.1616 270.9504 15.30207002277471
STARLINK-2414           
1 48095U 21027D   26101.12656279 -.00001180  00000+0 -27708-4 0  9995
2 48095  53.1617  14.6449 0001062 110.3007 249.8108 15.30206838277497
STARLINK-2417           
1 48096U 21027E   26101.12976508 -.00006380  00000+0 -20358-3 0  9996
2 48096  53.1601  14.9148 0001417  89.5087 270.6076 15.30184059277473
STARLINK-2418           
1 48097U 21027F   26101.25002315  .00019354  00000+0  63409-3 0  9994
2 48097  53.1595   1.6790 0001223  88.1247 252.0822 15.31685318  5691
STARLINK-2421           
1 48098U 21027G   26101.25002315  .00031698  00000+0  10293-2 0  9992
2 48098  53.1592   3.6935 0001305  81.2752 101.3129 15.31686218  5908
STARLINK-2428           
1 48099U 21027H   26101.03336996  .00023513  00000+0  80228-3 0  9997
2 48099  53.1624  17.5603 0002442  82.0807 278.0471 15.30248266277420
STARLINK-2430           
1 48100U 21027J   26101.20252730  .00159813  00000+0  51884-2 0  9990
2 48100  53.1619   1.4629 0001068  61.7492 298.3616 15.30845004277669
STARLINK-2436           
1 48101U 21027K   26101.15081013  .00001034  00000+0  47001-4 0  9998
2 48101  53.1617   4.1682 0001277  94.1277 265.9870 15.30211840277634
STARLINK-2439           
1 48104U 21027N   26101.10287301  .00002101  00000+0  83041-4 0  9994
2 48104  53.1615   2.2087 0001200  96.6484 263.4653 15.30205667277650
STARLINK-2440           
1 48105U 21027P   26101.27016708  .00001594  00000+0  65917-4 0  9991
2 48105  53.1576 309.6718 0000730 102.9864 257.1218 15.30205792278390
STARLINK-2442           
1 48106U 21027Q   26100.98937452  .00008643  00000+0  31141-3 0  9990
2 48106  53.1574   2.2541 0001394  81.9396 278.1763 15.29366131277639
STARLINK-2443           
1 48107U 21027R   26101.09969567 -.00000243  00000+0  39334-5 0  9999
2 48107  53.1614   2.0367 0001380  75.7239 284.3915 15.30187570277640
STARLINK-2448           
1 48111U 21027V   26101.02509226  .00058027  00000+0  16898-2 0  9998
2 48111  53.1591   4.1667 0003374 161.5719 198.5406 15.34868945277622
STARLINK-2449           
1 48112U 21027W   26101.25002315  .00046846  00000+0  15133-2 0  9998
2 48112  53.1608  16.5418 0001306  75.6215  38.6412 15.31670558  5978
STARLINK-2450           
1 48113U 21027X   26101.17185860  .00008204  00000+0  28872-3 0  9998
2 48113  53.1602  14.4124 0001226  88.7805 271.3336 15.30210929277473
STARLINK-2452           
1 48115U 21027Z   26101.25002315  .00021496  00000+0  70277-3 0  9996
2 48115  53.1602   3.6808 0001196  81.9774 254.9321 15.31686539  5857
STARLINK-2454           
1 48116U 21027AA  26101.16554958  .00011985  00000+0  41601-3 0  9993
2 48116  53.1631  14.4193 0001518  91.5018 268.6157 15.30210206277485
STARLINK-2455           
1 48117U 21027AB  26101.01011993  .00000435  00000+0  26808-4 0  9996
2 48117  53.1601   2.3528 0000593  62.0692 298.0369 15.30192523277634
STARLINK-2459           
1 48119U 21027AD  26101.25002315  .00015472  00000+0  50948-3 0  9990
2 48119  53.1595   1.1771 0001251  86.7453 149.1539 15.31688792  5920
STARLINK-2460           
1 48120U 21027AE  26101.14353649  .00009232  00000+0  32351-3 0  9994
2 48120  53.1615  17.0594 0001943 134.2928 225.8233 15.30194397277452
STARLINK-2462           
1 48121U 21027AF  26101.02439331 -.00001766  00000+0 -47534-4 0  9991
2 48121  53.1593   4.7411 0001069  93.2286 266.8837 15.30195528277608
STARLINK-2464           
1 48123U 21027AH  26101.13865630  .00005953  00000+0  21294-3 0  9994
2 48123  53.1633   1.8109 0001457  91.1387 268.9781 15.30204854277656
STARLINK-2465           
1 48124U 21027AJ  26101.03389158 -.00002292  00000+0 -65303-4 0  9995
2 48124  53.1630   4.7199 0001422  88.4405 271.6759 15.30185604277609
STARLINK-2466           
1 48125U 21027AK  26101.05703729  .00004046  00000+0  14864-3 0  9994
2 48125  53.1602  14.9478 0001530  89.4962 270.6214 15.30205991277462
STARLINK-2467           
1 48126U 21027AL  26101.25002315  .00019250  00000+0  63067-3 0  9992
2 48126  53.1584   1.2271 0001299  72.5942  36.5133 15.31690767  5700
STARLINK-2468           
1 48127U 21027AM  26101.23332487  .00167053  00000+0  53221-2 0  9992
2 48127  53.1603  14.2386 0001390  78.9496 281.1661 15.31418142277496
STARLINK-2469           
1 48128U 21027AN  26101.00462092  .00022427  00000+0  10290-2 0  9998
2 48128  53.1091 313.0734 0000716 153.3691 206.7342 15.20365494278311
STARLINK-2471           
1 48129U 21027AP  26101.04712312  .00126055  00000+0  41171-2 0  9990
2 48129  53.1599  15.2680 0000902  64.4309 295.6786 15.30817940277464
STARLINK-2472           
1 48130U 21027AQ  26101.25002315  .00086108  00000+0  27612-2 0  9998
2 48130  53.1592  16.9454 0001044  97.4877 247.9316 15.31624367  5749
STARLINK-2473           
1 48131U 21027AR  26101.16183607 -.00000778  00000+0 -14153-4 0  9992
2 48131  53.1595   1.6785 0001470  95.5195 264.5974 15.30190139277656
STARLINK-2474           
1 48132U 21027AS  26101.25002315  .00050046  00000+0  16149-2 0  9995
2 48132  53.1588  16.5444 0001314  87.9627 230.1615 15.31674714  5970
STARLINK-2475           
1 48133U 21027AT  26101.13918904  .00005405  00000+0  19433-3 0  9992
2 48133  53.1599  14.6072 0001217  86.2879 273.8261 15.30225106277486
STARLINK-2476           
1 48134U 21027AU  26101.25002315  .00040148  00000+0  12994-2 0  9993
2 48134  53.1589  14.0091 0001412  87.1198 286.1540 15.31678537  5984
STARLINK-2478           
1 48135U 21027AV  26101.26185082  .00024218  00000+0  82257-3 0  9998
2 48135  53.1628  16.6631 0001209  92.6268 267.4872 15.30380182277469
STARLINK-2479           
1 48136U 21027AW  26101.16240439 -.00001931  00000+0 -53112-4 0  9994
2 48136  53.1601  14.6463 0001258  93.3148 266.7996 15.30192342277481
STARLINK-2480           
1 48137U 21027AX  26101.04759151  .00000990  00000+0  52559-4 0  9994
2 48137  53.1370   3.5428 0001432  80.1542 279.9618 15.25038179277612
STARLINK-2481           
1 48138U 21027AY  26101.25002315  .00044306  00000+0  14322-2 0  9994
2 48138  53.1590  16.5209 0001213  81.6204 287.9390 15.31674028  5853
STARLINK-2482           
1 48139U 21027AZ  26100.92935157 -.00001301  00000+0 -32758-4 0  9992
2 48139  53.1579   2.7592 0001196  88.4552 271.6586 15.29367759277624
STARLINK-2483           
1 48140U 21027BA  26101.18982539 -.00001669  00000+0 -44236-4 0  9990
2 48140  53.1619  14.6956 0001205  89.0967 271.0172 15.30210188277489
STARLINK-2485           
1 48142U 21027BC  26101.02166075  .00004303  00000+0  16132-3 0  9993
2 48142  53.1552   2.6356 0001570  99.8180 260.2998 15.29368678277638
STARLINK-2486           
1 48143U 21027BD  26100.89508876  .00053920  00000+0  16637-2 0  9995
2 48143  53.1608 311.2432 0002940 203.7266 156.3601 15.33071914278342
STARLINK-2487           
1 48144U 21027BE  26100.99125893  .00004820  00000+0  17921-3 0  9994
2 48144  53.1574   2.4006 0001286  78.6407 281.4738 15.29362346277627
STARLINK-2491           
1 48148U 21027BJ  26101.04441280  .00001060  00000+0  47910-4 0  9991
2 48148  53.1625  15.1567 0001835 124.1193 235.9982 15.30210342277456
STARLINK-2492           
1 48149U 21027BK  26101.15619465  .00003241  00000+0  12454-3 0  9993
2 48149  53.1544   1.5039 0001233  96.7638 263.3503 15.29366026277655
STARLINK-2493           
1 48150U 21027BL  26101.15935760  .00005697  00000+0  20943-3 0  9993
2 48150  53.1545   1.4851 0001495 109.3639 250.7523 15.29386424277668
STARLINK-2503           
1 48151U 21027BM  26100.98696772  .00025286  00000+0  86337-3 0  9996
2 48151  53.1615   2.4843 0001634  98.8877 261.2309 15.30184546277639
SHIYAN-6 03 (SY-6 03)   
1 48157U 21028A   26101.05246440 -.00000033  00000+0  12443-4 0  9997
2 48157  99.5322 114.7471 0045371 262.6290  96.9702 13.77597099250264
ONEWEB-0176             
1 48210U 21031A   26101.27145050 -.00000174  00000+0 -50297-3 0  9995
2 48210  87.8933 303.0565 0001783  85.2689 274.8644 13.14502225239525
ONEWEB-0184             
1 48211U 21031B   26101.09225639  .00000227  00000+0  57890-3 0  9991
2 48211  87.8943 303.0866 0002429  75.8475 284.2925 13.14500942239472
ONEWEB-0179             
1 48212U 21031C   26101.27454473  .00000069  00000+0  60539-4 0  9991
2 48212  87.8936 302.7146 0001008  48.6621 311.4628 13.71507471239622
